0 DELTA 1 DEB
1 21516U 75052GM  13285.75535052  .00000085  00000-0  26373-3 0   634
2 21516 099.8995 210.5071 0069591 259.6413 128.2452 13.31810513 78861
0 DELTA 1 DEB
1 21516U 75052GM  13287.28397190  .00000095  00000-0  28330-3 0   640
2 21516 099.8999 211.9786 0069529 255.9302 257.3086 13.31810998 79067
0 DELTA 1 DEB
1 21516U 75052GM  13289.60646071  .00000132  00000-0  36086-3 0   653
2 21516 099.9003 214.2142 0069702 250.3334 232.5832 13.31811885 79377
0 DELTA 1 DEB
1 21516U 75052GM  13291.02087044  .00000131  00000-0  35820-3 0   666
2 21516 099.9002 215.5755 0069634 246.9054 174.0540 13.31812290 79562
0 DELTA 1 DEB
1 21516U 75052GM  13294.77014303  .00000158  00000-0  41381-3 0   678
2 21516 099.9000 219.1842 0069527 237.8220 150.1707 13.31813795 80060
0 DELTA 1 DEB
1 21516U 75052GM  13296.05561469  .00000146  00000-0  38895-3 0   685
2 21516 099.8999 220.4218 0069483 234.6826 193.4719 13.31814419 80232
